{"type": "FeatureCollection", "features": [ {"type": "Feature", "properties": {"norad_id": 28659, "name": "DIRECTV 8", "group": "intelsat", "lat": 0.019759308042046987, "lon": 15.678944015106255, "alt_km": 35792.09945583267, "timestamp": "2025-12-08T03:50:06.672314+00:00", "meta": {"OBJECT_NAME": "DIRECTV 8", "OBJECT_ID": "2005-019A", "EPOCH": "2025-12-07T08:12:59.085792", "MEAN_MOTION": 1.00271332, "ECCENTRICITY": 0.0003248, "INCLINATION": 0.0167, "RA_OF_ASC_NODE": 348.7889, "ARG_OF_PERICENTER": 271.3378, "MEAN_ANOMALY": 180.438, "EPHEMERIS_TYPE": 0, "CLASSIFICATION_TYPE": "U", "NORAD_CAT_ID": 28659, "ELEMENT_SET_NO": 999, "REV_AT_EPOCH": 7514, "BSTAR": 0, "MEAN_MOTION_DOT": 6e-08, "MEAN_MOTION_DDOT": 0}, "tle": {"line1": "1 28659U 05019A   25341.34235053  .00000006  00000+0  00000+0 0  9999", "line2": "2 28659   0.0167 348.7889 0003248 271.3378 180.4380  1.00271332 75141"}}, "geometry": {"type": "Point", "coordinates": [15.678944015106255, 0.019759308042046987]}}, {"type": "Feature", "properties": {"norad_id": 28702, "name": "GALAXY 28 (G-28)", "group": "intelsat", "lat": -1.6015768424380128, "lon": 46.06014172087176, "alt_km": 35796.00137983337, "timestamp": "2025-12-08T03:50:06.672326+00:00", "meta": {"OBJECT_NAME": "GALAXY 28 (G-28)", "OBJECT_ID": "2005-022A", "EPOCH": "2025-12-07T07:31:12.976032", "MEAN_MOTION": 1.00271565, "ECCENTRICITY": 0.00026545, "INCLINATION": 2.8047, "RA_OF_ASC_NODE": 81.3453, "ARG_OF_PERICENTER": 176.0467, "MEAN_ANOMALY": 203.0653, "EPHEMERIS_TYPE": 0, "CLASSIFICATION_TYPE": "U", "NORAD_CAT_ID": 28702, "ELEMENT_SET_NO": 999, "REV_AT_EPOCH": 5005, "BSTAR": 0, "MEAN_MOTION_DOT": -1.84e-06, "MEAN_MOTION_DDOT": 0}, "tle": {"line1": "1 28702U 05022A   25341.31334463 -.00000184  00000+0  00000+0 0  9992", "line2": "2 28702   2.8047  81.3453 0002654 176.0467 203.0653  1.00271565 50050"}}, "geometry": {"type": "Point", "coordinates": [46.06014172087176, -1.6015768424380128]}}, {"type": "Feature", "properties": {"norad_id": 29236, "name": "GALAXY 16 (G-16)", "group": "intelsat", "lat": -0.0017388424819508158, "lon": 35.71153429221805, "alt_km": 35794.81082661035, "timestamp": "2025-12-08T03:50:06.672338+00:00", "meta": {"OBJECT_NAME": "GALAXY 16 (G-16)", "OBJECT_ID": "2006-023A", "EPOCH": "2025-12-07T07:09:32.931648", "MEAN_MOTION": 1.00271165, "ECCENTRICITY": 0.00030085, "INCLINATION": 0.0014, "RA_OF_ASC_NODE": 246.4408, "ARG_OF_PERICENTER": 17.2474, "MEAN_ANOMALY": 181.0155, "EPHEMERIS_TYPE": 0, "CLASSIFICATION_TYPE": "U", "NORAD_CAT_ID": 29236, "ELEMENT_SET_NO": 999, "REV_AT_EPOCH": 7104, "BSTAR": 0, "MEAN_MOTION_DOT": -1.22e-06, "MEAN_MOTION_DDOT": 0}, "tle": {"line1": "1 29236U 06023A   25341.29829782 -.00000122  00000+0  00000+0 0  9999", "line2": "2 29236   0.0014 246.4408 0003008  17.2474 181.0155  1.00271165 71049"}}, "geometry": {"type": "Point", "coordinates": [35.71153429221805, -0.0017388424819508158]}}, {"type": "Feature", "properties": {"norad_id": 29494, "name": "DIRECTV 9S", "group": "intelsat", "lat": -1.4534212910428523, "lon": 33.52503714850084, "alt_km": 35796.37550477958, "timestamp": "2025-12-08T03:50:06.672350+00:00", "meta": {"OBJECT_NAME": "DIRECTV 9S", "OBJECT_ID": "2006-043A", "EPOCH": "2025-12-07T07:19:24.275712", "MEAN_MOTION": 1.00270561, "ECCENTRICITY": 0.0003243, "INCLINATION": 1.9257, "RA_OF_ASC_NODE": 83.265, "ARG_OF_PERICENTER": 175.0328, "MEAN_ANOMALY": 186.6729, "EPHEMERIS_TYPE": 0, "CLASSIFICATION_TYPE": "U", "NORAD_CAT_ID": 29494, "ELEMENT_SET_NO": 999, "REV_AT_EPOCH": 4946, "BSTAR": 0, "MEAN_MOTION_DOT": -1.09e-06, "MEAN_MOTION_DDOT": 0}, "tle": {"line1": "1 29494U 06043A   25341.30514208 -.00000109  00000+0  00000+0 0  9998", "line2": "2 29494   1.9257  83.2650 0003243 175.0328 186.6729  1.00270561 49460"}}, "geometry": {"type": "Point", "coordinates": [33.52503714850084, -1.4534212910428523]}}, {"type": "Feature", "properties": {"norad_id": 31307, "name": "GALAXY 17 (G-17)", "group": "intelsat", "lat": -1.3203018115527727, "lon": 49.72568259282982, "alt_km": 35811.63208696264, "timestamp": "2025-12-08T03:50:06.672361+00:00", "meta": {"OBJECT_NAME": "GALAXY 17 (G-17)", "OBJECT_ID": "2007-016B", "EPOCH": "2025-12-07T07:30:03.174336", "MEAN_MOTION": 1.00270009, "ECCENTRICITY": 0.0006037, "INCLINATION": 2.4859, "RA_OF_ASC_NODE": 82.3457, "ARG_OF_PERICENTER": 161.0096, "MEAN_ANOMALY": 220.4883, "EPHEMERIS_TYPE": 0, "CLASSIFICATION_TYPE": "U", "NORAD_CAT_ID": 31307, "ELEMENT_SET_NO": 999, "REV_AT_EPOCH": 6788, "BSTAR": 0, "MEAN_MOTION_DOT": -2.03e-06, "MEAN_MOTION_DDOT": 0}, "tle": {"line1": "1 31307U 07016B   25341.31253674 -.00000203  00000+0  00000+0 0  9998", "line2": "2 31307   2.4859  82.3457 0006037 161.0096 220.4883  1.00270009 67887"}}, "geometry": {"type": "Point", "coordinates": [49.72568259282982, -1.3203018115527727]}}, {"type": "Feature", "properties": {"norad_id": 31862, "name": "DIRECTV 10", "group": "intelsat", "lat": -0.005342054334622732, "lon": 31.903196930599485, "alt_km": 35787.56781321131, "timestamp": "2025-12-08T03:50:06.672372+00:00", "meta": {"OBJECT_NAME": "DIRECTV 10", "OBJECT_ID": "2007-032A", "EPOCH": "2025-12-07T07:18:26.373888", "MEAN_MOTION": 1.00269963, "ECCENTRICITY": 3.131e-05, "INCLINATION": 0.0034, "RA_OF_ASC_NODE": 221.9555, "ARG_OF_PERICENTER": 33.2255, "MEAN_ANOMALY": 187.97, "EPHEMERIS_TYPE": 0, "CLASSIFICATION_TYPE": "U", "NORAD_CAT_ID": 31862, "ELEMENT_SET_NO": 999, "REV_AT_EPOCH": 4366, "BSTAR": 0, "MEAN_MOTION_DOT": -9.8e-07, "MEAN_MOTION_DDOT": 0}, "tle": {"line1": "1 31862U 07032A   25341.30447192 -.00000098  00000+0  00000+0 0  9993", "line2": "2 31862   0.0034 221.9555 0000313  33.2255 187.9700  1.00269963 43662"}}, "geometry": {"type": "Point", "coordinates": [31.903196930599485, -0.005342054334622732]}}, {"type": "Feature", "properties": {"norad_id": 32253, "name": "INTELSAT 11 (IS-11)", "group": "intelsat", "lat": -2.654138945809233, "lon": 20.65757603981864, "alt_km": 36161.49749046164, "timestamp": "2025-12-08T03:50:06.672384+00:00", "meta": {"OBJECT_NAME": "INTELSAT 11 (IS-11)", "OBJECT_ID": "2007-044B", "EPOCH": "2025-12-07T07:14:23.481888", "MEAN_MOTION": 0.99047299, "ECCENTRICITY": 0.00092322, "INCLINATION": 3.0656, "RA_OF_ASC_NODE": 81.0352, "ARG_OF_PERICENTER": 163.5456, "MEAN_ANOMALY": 189.9763, "EPHEMERIS_TYPE": 0, "CLASSIFICATION_TYPE": "U", "NORAD_CAT_ID": 32253, "ELEMENT_SET_NO": 999, "REV_AT_EPOCH": 6654, "BSTAR": 0, "MEAN_MOTION_DOT": 5.6e-07, "MEAN_MOTION_DDOT": 0}, "tle": {"line1": "1 32253U 07044B   25341.30166067  .00000056  00000+0  00000+0 0  9993", "line2": "2 32253   3.0656  81.0352 0009232 163.5456 189.9763  0.99047299 66545"}}, "geometry": {"type": "Point", "coordinates": [20.65757603981864, -2.654138945809233]}}, {"type": "Feature", "properties": {"norad_id": 32388, "name": "HORIZONS-2", "group": "intelsat", "lat": -0.7692795852535181, "lon": 60.955668007297255, "alt_km": 35805.662455554106, "timestamp": "2025-12-08T03:50:06.672396+00:00", "meta": {"OBJECT_NAME": "HORIZONS-2", "OBJECT_ID": "2007-063B", "EPOCH": "2025-12-07T07:56:06.896832", "MEAN_MOTION": 1.00270967, "ECCENTRICITY": 0.00050796, "INCLINATION": 2.107, "RA_OF_ASC_NODE": 83.0174, "ARG_OF_PERICENTER": 184.9695, "MEAN_ANOMALY": 213.6188, "EPHEMERIS_TYPE": 0, "CLASSIFICATION_TYPE": "U", "NORAD_CAT_ID": 32388, "ELEMENT_SET_NO": 999, "REV_AT_EPOCH": 6589, "BSTAR": 0, "MEAN_MOTION_DOT": -2.5e-06, "MEAN_MOTION_DDOT": 0}, "tle": {"line1": "1 32388U 07063B   25341.33063538 -.00000250  00000+0  00000+0 0  9992", "line2": "2 32388   2.1070  83.0174 0005079 184.9695 213.6188  1.00270967 65891"}}, "geometry": {"type": "Point", "coordinates": [60.955668007297255, -0.7692795852535181]}}, {"type": "Feature", "properties": {"norad_id": 32729, "name": "DIRECTV 11", "group": "intelsat", "lat": -0.0011233332811334152, "lon": 35.5181899234105, "alt_km": 35787.600996246, "timestamp": "2025-12-08T03:50:06.672407+00:00", "meta": {"OBJECT_NAME": "DIRECTV 11", "OBJECT_ID": "2008-013A", "EPOCH": "2025-12-06T11:28:54.626592", "MEAN_MOTION": 1.00274292, "ECCENTRICITY": 5.186e-05, "INCLINATION": 0.0204, "RA_OF_ASC_NODE": 155.7645, "ARG_OF_PERICENTER": 58.6641, "MEAN_ANOMALY": 294.1227, "EPHEMERIS_TYPE": 0, "CLASSIFICATION_TYPE": "U", "NORAD_CAT_ID": 32729, "ELEMENT_SET_NO": 999, "REV_AT_EPOCH": 4366, "BSTAR": 0, "MEAN_MOTION_DOT": -1.19e-06, "MEAN_MOTION_DDOT": 0}, "tle": {"line1": "1 32729U 08013A   25340.47841003 -.00000119  00000+0  00000+0 0  9996", "line2": "2 32729   0.0204 155.7645 0000518  58.6641 294.1227  1.00274292 43661"}}, "geometry": {"type": "Point", "coordinates": [35.5181899234105, -0.0011233332811334152]}}, {"type": "Feature", "properties": {"norad_id": 32951, "name": "GALAXY 18 (G-18)", "group": "intelsat", "lat": -0.005524818643069767, "lon": 11.713973443986983, "alt_km": 35791.70329111051, "timestamp": "2025-12-08T03:50:06.672419+00:00", "meta": {"OBJECT_NAME": "GALAXY 18 (G-18)", "OBJECT_ID": "2008-024A", "EPOCH": "2025-12-07T08:07:14.505312", "MEAN_MOTION": 1.00270181, "ECCENTRICITY": 0.0003321, "INCLINATION": 0.021, "RA_OF_ASC_NODE": 57.0704, "ARG_OF_PERICENTER": 202.8422, "MEAN_ANOMALY": 175.2489, "EPHEMERIS_TYPE": 0, "CLASSIFICATION_TYPE": "U", "NORAD_CAT_ID": 32951, "ELEMENT_SET_NO": 999, "REV_AT_EPOCH": 4392, "BSTAR": 0, "MEAN_MOTION_DOT": 3e-07, "MEAN_MOTION_DDOT": 0}, "tle": {"line1": "1 32951U 08024A   25341.33836233  .00000030  00000+0  00000+0 0  9991", "line2": "2 32951   0.0210  57.0704 0003321 202.8422 175.2489  1.00270181 43921"}}, "geometry": {"type": "Point", "coordinates": [11.713973443986983, -0.005524818643069767]}}]}